NORAD_CAT_ID,OBJECT_NAME,OBJECT_TYPE,EPOCH,MEAN_MOTION,ECCENTRICITY,INCLINATION,RA_OF_ASC_NODE,ARG_OF_PERICENTER,MEAN_ANOMALY,BSTAR,MEAN_MOTION_DOT,MEAN_MOTION_DDOT,TLE_LINE0,TLE_LINE1,TLE_LINE2,SEMIMAJOR_AXIS,PERIOD,APOGEE,PERIGEE,DECAYED
54015.0,STARLINK-5055,PAYLOAD,2023-06-20 20:51:51,15.08855381,7.63e-05,53.217,340.8583,110.3805,249.7269,0.00012001,1.624e-05,0.0,0 STARLINK-5055,1 54015U 22125BD  23171.86935159  .00001624  00000-0  12001-3 0  9997,2 54015  53.2170 340.8583 0000763 110.3805 249.7269 15.08855381 39724,6917.833,95.437,540.226,539.171,0.0
54015.0,STARLINK-5055,PAYLOAD,2023-06-21 17:31:53,15.08835019,8.17e-05,53.217,336.9939,82.4801,277.6284,-6.2255e-05,-1.278e-05,0.0,0 STARLINK-5055,1 54015U 22125BD  23172.73048309 -.00001278  00000-0 -62255-4 0  9990,2 54015  53.2170 336.9939 0000817  82.4801 277.6284 15.08835019 39903,6917.896,95.438,540.326,539.195,0.0
54015.0,STARLINK-5055,PAYLOAD,2023-06-22 17:22:41,15.08841208,9.17e-05,53.2174,332.5324,75.3858,284.7236,0.00043551,6.65e-05,0.0,0 STARLINK-5055,1 54015U 22125BD  23173.72409029  .00006650  00000-0  43551-3 0  9994,2 54015  53.2174 332.5324 0000917  75.3858 284.7236 15.08841208 40052,6917.877,95.437,540.376,539.107,0.0
54015.0,STARLINK-5055,PAYLOAD,2023-06-23 17:13:28,15.08849443,8.79e-05,53.2172,328.0736,73.2874,286.8215,0.00044682,6.832e-05,0.0,0 STARLINK-5055,1 54015U 22125BD  23174.71769025  .00006832  00000-0  44682-3 0  9997,2 54015  53.2172 328.0736 0000879  73.2874 286.8215 15.08849443 40205,6917.852,95.437,540.325,539.108,0.0
54015.0,STARLINK-5055,PAYLOAD,2023-06-24 02:45:47,15.08846399,8.31e-05,53.2173,326.2882,74.5499,285.5585,0.00027329,4.065e-05,0.0,0 STARLINK-5055,1 54015U 22125BD  23175.11512958  .00004065  00000-0  27329-3 0  9998,2 54015  53.2173 326.2882 0000831  74.5499 285.5585 15.08846399 40262,6917.861,95.437,540.301,539.151,0.0
54015.0,STARLINK-5055,PAYLOAD,2023-06-24 17:04:15,15.08845181,8.92e-05,53.2166,323.6145,85.3453,274.7641,0.0001786,2.556e-05,0.0,0 STARLINK-5055,1 54015U 22125BD  23175.71129116  .00002556  00000-0  17860-3 0  9996,2 54015  53.2166 323.6145 0000892  85.3453 274.7641 15.08845181 40355,6917.865,95.437,540.347,539.112,0.0
54015.0,STARLINK-5055,PAYLOAD,2023-06-25 08:58:07,15.08838086,8.39e-05,53.2163,320.6405,95.7819,264.3269,-5.4422e-06,-3.74e-06,0.0,0 STARLINK-5055,1 54015U 22125BD  23176.37369351 -.00000374  00000-0 -54422-5 0  9991,2 54015  53.2163 320.6405 0000839  95.7819 264.3269 15.08838086 40458,6917.886,95.438,540.332,539.171,0.0
54015.0,STARLINK-5055,PAYLOAD,2023-06-26 16:45:50,15.08833209,9.91e-05,53.2167,314.6938,78.5856,281.5247,-2.5029e-05,-6.86e-06,0.0,0 STARLINK-5055,1 54015U 22125BD  23177.69850037 -.00000686  00000-0 -25029-4 0  9999,2 54015  53.2167 314.6938 0000991  78.5856 281.5247 15.08833209 40656,6917.901,95.438,540.452,539.081,0.0
54015.0,STARLINK-5055,PAYLOAD,2023-06-27 16:36:37,15.08843156,9.16e-05,53.2169,310.2319,80.5928,279.5168,0.00012179,1.651e-05,0.0,0 STARLINK-5055,1 54015U 22125BD  23178.69209828  .00001651  00000-0  12179-3 0  9998,2 54015  53.2169 310.2319 0000916  80.5928 279.5168 15.08843156 40801,6917.871,95.437,540.369,539.102,0.0
54015.0,STARLINK-5055,PAYLOAD,2023-06-28 08:30:28,15.08838221,0.0001003,53.2168,307.2601,73.7667,286.3435,0.00017236,2.456e-05,0.0,0 STARLINK-5055,1 54015U 22125BD  23179.35450220  .00002456  00000-0  17236-3 0  9999,2 54015  53.2168 307.2601 0001003  73.7667 286.3435 15.08838221 40903,6917.886,95.438,540.445,539.057,0.0
54015.0,STARLINK-5055,PAYLOAD,2023-06-28 19:38:10,15.08849507,9.72e-05,53.2173,305.1773,82.2516,277.8587,0.00023015,3.378e-05,0.0,0 STARLINK-5055,1 54015U 22125BD  23179.81817612  .00003378  00000-0  23015-3 0  9998,2 54015  53.2173 305.1773 0000972  82.2516 277.8587 15.08849507 40977,6917.851,95.437,540.389,539.044,0.0
54015.0,STARLINK-5055,PAYLOAD,2023-06-29 08:21:15,15.08839291,9.01e-05,53.2164,302.7982,83.4274,276.6821,7.7872e-05,9.52e-06,0.0,0 STARLINK-5055,1 54015U 22125BD  23180.34810097  .00000952  00000-0  77872-4 0  9994,2 54015  53.2164 302.7982 0000901  83.4274 276.6821 15.08839291 41055,6917.883,95.438,540.371,539.124,0.0
54015.0,STARLINK-5055,PAYLOAD,2023-06-29 17:53:34,15.08850625,9.43e-05,53.2173,301.0148,81.6234,278.4865,0.00017649,2.523e-05,0.0,0 STARLINK-5055,1 54015U 22125BD  23180.74553478  .00002523  00000-0  17649-3 0  9996,2 54015  53.2173 301.0148 0000943  81.6234 278.4865 15.08850625 41112,6917.848,95.437,540.365,539.061,0.0
54015.0,STARLINK-5055,PAYLOAD,2023-06-30 12:58:12,15.08839862,0.0001275,53.2174,297.4448,104.2776,255.8357,2.1199e-05,5e-07,0.0,0 STARLINK-5055,1 54015U 22125BD  23181.54041989  .00000050  00000-0  21199-4 0  9993,2 54015  53.2174 297.4448 0001275 104.2776 255.8357 15.08839862 41234,6917.881,95.438,540.628,538.864,0.0
54015.0,STARLINK-5055,PAYLOAD,2023-07-01 08:02:50,15.08834343,0.000102,53.2173,293.8773,86.1527,273.9582,3.0682e-05,2.01e-06,0.0,0 STARLINK-5055,1 54015U 22125BD  23182.33530411  .00000201  00000-0  30682-4 0  9999,2 54015  53.2173 293.8773 0001020  86.1527 273.9582 15.08834343 41357,6917.898,95.438,540.468,539.057,0.0
54015.0,STARLINK-5055,PAYLOAD,2023-07-01 14:24:22,15.0884196,0.0001029,53.2176,292.6882,90.0243,270.0867,0.00010122,1.324e-05,0.0,0 STARLINK-5055,1 54015U 22125BD  23182.60026052  .00001324  00000-0  10122-3 0  9993,2 54015  53.2176 292.6882 0001029  90.0243 270.0867 15.08841960 41397,6917.874,95.437,540.451,539.028,0.0
54015.0,STARLINK-5055,PAYLOAD,2023-07-01 23:56:41,15.0883429,0.0001202,53.2173,290.9015,88.8149,271.2981,-4.0429e-05,-9.31e-06,0.0,0 STARLINK-5055,1 54015U 22125BD  23182.99770323 -.00000931  00000-0 -40429-4 0  9991,2 54015  53.2173 290.9015 0001202  88.8149 271.2981 15.08834290 41451,6917.898,95.438,540.594,538.931,0.0
54015.0,STARLINK-5055,PAYLOAD,2023-07-02 14:15:09,15.08844209,9e-05,53.217,288.2276,88.0839,272.0256,0.00014283,1.986e-05,0.0,0 STARLINK-5055,1 54015U 22125BD  23183.59386023  .00001986  00000-0  14283-3 0  9995,2 54015  53.2170 288.2276 0000900  88.0839 272.0256 15.08844209 41544,6917.868,95.437,540.355,539.11,0.0
54015.0,STARLINK-5055,PAYLOAD,2023-07-03 15:41:19,15.08852364,9.27e-05,53.2167,283.4702,90.0356,270.0743,0.00027211,4.047e-05,0.0,0 STARLINK-5055,1 54015U 22125BD  23184.65369639  .00004047  00000-0  27211-3 0  9993,2 54015  53.2167 283.4702 0000927  90.0356 270.0743 15.08852364 41705,6917.843,95.437,540.349,539.066,0.0
54015.0,STARLINK-5055,PAYLOAD,2023-07-04 12:21:20,15.08835419,9.93e-05,53.2167,279.6049,96.158,263.9525,-8.3323e-05,-1.613e-05,0.0,0 STARLINK-5055,1 54015U 22125BD  23185.51482176 -.00001613  00000-0 -83323-4 0  9996,2 54015  53.2167 279.6049 0000993  96.1580 263.9525 15.08835419 41830,6917.894,95.438,540.446,539.072,0.0
54015.0,STARLINK-5055,PAYLOAD,2023-07-04 23:29:03,15.08821413,0.0001011,53.2174,277.5229,98.1451,261.9656,0.0002225,3.253e-05,0.0,0 STARLINK-5055,1 54015U 22125BD  23185.97851534  .00003253  00000-0  22250-3 0  9995,2 54015  53.2174 277.5229 0001011  98.1451 261.9656 15.08821413 41906,6917.937,95.439,540.502,539.103,0.0
54015.0,STARLINK-5055,PAYLOAD,2023-07-05 09:01:21,15.08838716,9.76e-05,53.2172,275.7387,88.9648,271.1456,4.2653e-05,3.91e-06,0.0,0 STARLINK-5055,1 54015U 22125BD  23186.37594666  .00000391  00000-0  42653-4 0  9990,2 54015  53.2172 275.7387 0000976  88.9648 271.1456 15.08838716 41964,6917.884,95.438,540.424,539.074,0.0
54015.0,STARLINK-5055,PAYLOAD,2023-07-05 15:22:53,15.08845752,9.92e-05,53.2173,274.5487,90.7746,269.336,4.7297e-05,4.65e-06,0.0,0 STARLINK-5055,1 54015U 22125BD  23186.64090162  .00000465  00000-0  47297-4 0  9993,2 54015  53.2173 274.5487 0000992  90.7746 269.3360 15.08845752 42008,6917.863,95.437,540.414,539.042,0.0
54015.0,STARLINK-5055,PAYLOAD,2023-07-06 05:41:22,15.08832971,0.0001023,53.2171,271.8725,89.8173,270.2936,0.00015077,2.112e-05,0.0,0 STARLINK-5055,1 54015U 22125BD  23187.23706649  .00002112  00000-0  15077-3 0  9994,2 54015  53.2171 271.8725 0001023  89.8173 270.2936 15.08832971 42098,6917.902,95.438,540.475,539.059,0.0
54015.0,STARLINK-5055,PAYLOAD,2023-07-06 16:49:03,15.08844362,0.0001065,53.217,269.7911,88.6744,271.437,0.00023728,3.491e-05,0.0,0 STARLINK-5055,1 54015U 22125BD  23187.70073954  .00003491  00000-0  23728-3 0  9995,2 54015  53.2170 269.7911 0001065  88.6744 271.4370 15.08844362 42167,6917.867,95.437,540.469,538.995,0.0
54015.0,STARLINK-5055,PAYLOAD,2023-07-07 10:18:18,15.08844791,0.0001117,53.2169,266.5208,87.8986,272.2134,0.0001173,1.58e-05,0.0,0 STARLINK-5055,1 54015U 22125BD  23188.42938308  .00001580  00000-0  11730-3 0  9995,2 54015  53.2169 266.5208 0001117  87.8986 272.2134 15.08844791 42271,6917.866,95.437,540.503,538.958,0.0
54015.0,STARLINK-5055,PAYLOAD,2023-07-07 16:39:50,15.08853208,0.00011,53.2174,265.3307,87.5647,272.5471,0.00014998,2.101e-05,0.0,0 STARLINK-5055,1 54015U 22125BD  23188.69433591  .00002101  00000-0  14998-3 0  9997,2 54015  53.2174 265.3307 0001100  87.5647 272.5471 15.08853208 42312,6917.84,95.437,540.466,538.944,0.0
54015.0,STARLINK-5055,PAYLOAD,2023-07-08 08:33:42,15.08839497,0.0001063,53.216,262.3568,104.0193,256.0918,8.2154e-06,-1.57e-06,0.0,0 STARLINK-5055,1 54015U 22125BD  23189.35674446 -.00000157  00000-0  82154-5 0  9998,2 54015  53.2160 262.3568 0001063 104.0193 256.0918 15.08839497 42410,6917.882,95.438,540.482,539.012,0.0
54015.0,STARLINK-5055,PAYLOAD,2023-07-09 11:35:16,15.08834984,0.0001129,53.2158,257.3025,95.0731,265.039,-2.4889e-05,-6.84e-06,0.0,0 STARLINK-5055,1 54015U 22125BD  23190.48282851 -.00000684  00000-0 -24889-4 0  9995,2 54015  53.2158 257.3025 0001129  95.0731 265.0390 15.08834984 42587,6917.896,95.438,540.542,538.98,0.0
54015.0,STARLINK-5055,PAYLOAD,2023-07-10 14:36:49,15.08841533,0.0001193,53.2161,252.2473,99.7952,260.3175,0.00017083,2.432e-05,0.0,0 STARLINK-5055,1 54015U 22125BD  23191.60890857  .00002432  00000-0  17083-3 0  9999,2 54015  53.2161 252.2473 0001193  99.7952 260.3175 15.08841533 42755,6917.876,95.437,540.566,538.915,0.0
